#aV2011 11 25  0  0   .00000000      96 DD+AD WGS84 FIT  NGA
## 1663 432000.00000000   900.00000000 55890  .0000000000000
+   31     1  2  3  4  5  6  7  8  9 10 11 12 13 14 15 16 17
+         18 19 20 21 22 23 25 26 27 28 29 30 31 32  0  0  0
+          0  0  0  0  0  0  0  0  0  0  0  0  0  0  0  0  0
+          0  0  0  0  0  0  0  0  0  0  0  0  0  0  0  0  0
+          0  0  0  0  0  0  0  0  0  0  0  0  0  0  0  0  0
++         0  0  0  0  0  0  0  0  0  0  0  0  0  0  0  0  0
++         0  0  0  0  0  0  0  0  0  0  0  0  0  0  0  0  0
++         0  0  0  0  0  0  0  0  0  0  0  0  0  0  0  0  0
++         0  0  0  0  0  0  0  0  0  0  0  0  0  0  0  0  0
++         0  0  0  0  0  0  0  0  0  0  0  0  0  0  0  0  0
%c cc cc ccc ccc cccc cccc cccc cccc ccccc ccccc ccccc ccccc
%c cc cc ccc ccc cccc cccc cccc cccc ccccc ccccc ccccc ccccc
%f  0.0000000  0.000000000  0.00000000000  0.000000000000000
%f  0.0000000  0.000000000  0.00000000000  0.000000000000000
%i    0    0    0    0      0      0      0      0         0
%i    0    0    0    0      0      0      0      0         0
/*      NGA, ST. LOUIS,MO.                                  
/*   EPHEMERIS COMPUTED FROM  3 DAYS OF DATA                
/* CCCCCCCCCCCCCCCCCCCCCCCCCCCCCCCCCCCCCCCCCCCCCCCCCCCCCCCCC
/* CCCCCCCCCCCCCCCCCCCCCCCCCCCCCCCCCCCCCCCCCCCCCCCCCCCCCCCCC
*  2011 11 25 19 15   .00000000                                                 
P  1  17211.041468  13346.810538 -15223.125998    112.752083                    
V  1 -19389.238099   -841.504572 -22675.351013       .192422                    
P  2   6858.835139 -14642.781962  21083.945788    367.327635                    
V  2  26375.866569   4550.718940  -5938.261119       .017677                    
P  3  -8763.432912  24092.586879  -6788.150332    799.845118                    
V  3  -7461.845136   4995.924721  29612.264578       .051760                    
P  4  20603.456913  -7794.872149  14836.139015     14.639362                    
V  4  18580.137546   5347.228932 -22298.019495       .113201                    
P  5   -781.620363 -24001.739028  11193.601468   -249.889907                    
V  5   7712.224056  12344.787131  27089.163442      -.049103                    
P  6 -13572.639060  22471.069853  -2836.179092      7.515142                    
V  6  -5293.720544    877.868715  31099.430458       .050197                    
P  7  25801.903774   6266.478994   2764.826983     39.499130                    
V  7  -3765.181397   1529.476416  31657.931721       .022782                    
P  8  25557.374058   1023.427542  -8138.339823       .117769                    
V  8   9639.812407   3563.174821  29957.695550      -.000019                    
P  9 -13357.503771 -14305.385136 -18490.285196    120.777599                    
V  9  22247.905120   2098.909933 -18267.159456       .025890                    
P 10  13010.749446  -8733.409720  21172.392409    -20.179349                    
V 10  10005.664608  25651.919890   4772.167684      -.011233                    
P 11  11575.954991  14611.503109 -19379.717571   -207.314013                    
V 11 -23769.126712   4221.303892 -10887.675320      -.035791                    
P 12 -11873.892603 -23389.866765   4733.318116     36.885833                    
V 12    -77.034616  -6311.050410 -31269.309867       .022800                    
P 13  15741.941859   3583.744903  20973.156589    239.578381                    
V 13 -18169.042545  19778.843085  10112.243427      -.019702                    
P 14 -20673.815587  13944.444345  -8757.625247    182.946506                    
V 14   6084.707614  -9865.353350 -29612.332782       .017372                    
P 15  -1925.257833 -19042.651809 -18327.592491    -98.353419                    
V 15  15742.910940 -17404.289497  16612.791600       .010250                    
P 16   -410.454352  23576.483413  11935.470867   -210.752461                    
V 16  -6913.977585 -13712.811158  27170.241251      -.019789                    
P 17  20571.574255 -13077.130777 -10097.405555    163.866977                    
V 17  -6522.558786  11698.669575 -28262.391454      -.019050                    
P 18 -17411.941400  -8737.670210 -17867.741681    168.844465                    
V 18  -6360.329002 -22537.591629  16538.244596       .018495                    
P 19  -2188.901847  19856.783386 -17350.731353   -208.644227                    
V 19 -16711.731288  14613.930637  19228.840066      -.039581                    
P 20  13488.964964  22417.959589   4636.388200     56.785520                    
V 20   -874.269420   7015.170546 -30315.216354       .007418                    
P 21 -26585.681291  -3862.075990   -665.242685   -186.837920                    
V 21   -811.160218  -3418.409807  30689.303068      -.024714                    
P 22 -14017.291230   7508.684019 -21091.503108    143.291550                    
V 22  -9781.568545 -25518.295495  -2671.167719      -.000652                    
P 23   9233.140311  12421.528399  21575.927256    256.263522                    
V 23 -17872.042700  20737.953694  -4649.509498      -.032595                    
P 25 -16419.534683 -15862.669093  13574.795631     28.679285                    
V 25  -4493.280891 -16783.379047 -24971.737847       .010260                    
P 26  10097.542400 -21755.095758 -11564.677678   -238.995998                    
V 26  10916.878283  -8763.107317  27822.623188      -.136379                    
P 27  -7378.448020 -14568.612640 -20395.295877    329.388122                    
V 27  27121.774010   2432.853779 -10812.776048       .038365                    
P 28  14370.158358  -3009.737585 -21608.964600     87.452820                    
V 28   9044.393537  27212.347353   1929.726205       .034488                    
P 29 -15663.888811  -4388.641513  21051.599556    260.602304                    
V 29  16971.576459 -20482.297135   8419.881919       .032924                    
P 30  -8373.959868  14737.406420  20098.710539     40.106339                    
V 30 -12883.520463 -22993.437768  11275.470352      -.096226                    
P 31 -17301.519434   9374.352377  18147.250108    174.247496                    
V 31 -21992.698056  -4869.226488 -18451.281181       .050915                    
P 32   6390.483436  25980.804299  -1509.154342   -367.439017                    
V 32  -3158.448788  -1362.024541 -31222.735582      -.059642                    
EOF
